[{"OBJECT_NAME":"STARLINK-5593","OBJECT_ID":"2023-028Y","EPOCH":"2026-02-28T06:33:14.964768","MEAN_MOTION":14.98352292,"ECCENTRICITY":0.00030285,"INCLINATION":69.9974,"RA_OF_ASC_NODE":268.0358,"ARG_OF_PERICENTER":276.5732,"MEAN_ANOMALY":83.5083,"EPHEMERIS_TYPE":0,"CLASSIFICATION_TYPE":"U","NORAD_CAT_ID":55763,"ELEMENT_SET_NO":999,"REV_AT_EPOCH":16463,"BSTAR":-0.00057411145,"MEAN_MOTION_DOT":-6.94e-5,"MEAN_MOTION_DDOT":0},{"OBJECT_NAME":"STARLINK-5499","OBJECT_ID":"2023-028Z","EPOCH":"2026-02-28T05:38:52.534464","MEAN_MOTION":14.98330898,"ECCENTRICITY":0.00022571,"INCLINATION":69.9974,"RA_OF_ASC_NODE":248.4253,"ARG_OF_PERICENTER":279.7593,"MEAN_ANOMALY":80.3311,"EPHEMERIS_TYPE":0,"CLASSIFICATION_TYPE":"U","NORAD_CAT_ID":55764,"ELEMENT_SET_NO":999,"REV_AT_EPOCH":16511,"BSTAR":3.292663e-5,"MEAN_MOTION_DOT":3.0e-6,"MEAN_MOTION_DDOT":0},{"OBJECT_NAME":"STARLINK-5595","OBJECT_ID":"2023-028AA","EPOCH":"2026-02-27T23:20:20.735808","MEAN_MOTION":14.98332878,"ECCENTRICITY":0.0002868,"INCLINATION":69.9973,"RA_OF_ASC_NODE":249.1136,"ARG_OF_PERICENTER":269.945,"MEAN_ANOMALY":90.1381,"EPHEMERIS_TYPE":0,"CLASSIFICATION_TYPE":"U","NORAD_CAT_ID":55765,"ELEMENT_SET_NO":999,"REV_AT_EPOCH":16507,"BSTAR":-4.2114e-5,"MEAN_MOTION_DOT":-5.96e-6,"MEAN_MOTION_DDOT":0},{"OBJECT_NAME":"STARLINK-5599","OBJECT_ID":"2023-028AB","EPOCH":"2026-02-27T22:44:17.119968","MEAN_MOTION":14.98326952,"ECCENTRICITY":0.0002892,"INCLINATION":69.9982,"RA_OF_ASC_NODE":249.0237,"ARG_OF_PERICENTER":270.58,"MEAN_ANOMALY":89.5028,"EPHEMERIS_TYPE":0,"CLASSIFICATION_TYPE":"U","NORAD_CAT_ID":55766,"ELEMENT_SET_NO":999,"REV_AT_EPOCH":16507,"BSTAR":5.2064e-5,"MEAN_MOTION_DOT":5.28e-6,"MEAN_MOTION_DDOT":0},{"OBJECT_NAME":"STARLINK-5606","OBJECT_ID":"2023-028AC","EPOCH":"2026-02-27T23:26:21.499008","MEAN_MOTION":14.98327516,"ECCENTRICITY":0.00028783,"INCLINATION":69.9977,"RA_OF_ASC_NODE":249.1289,"ARG_OF_PERICENTER":268.3941,"MEAN_ANOMALY":91.6889,"EPHEMERIS_TYPE":0,"CLASSIFICATION_TYPE":"U","NORAD_CAT_ID":55767,"ELEMENT_SET_NO":999,"REV_AT_EPOCH":16505,"BSTAR":-1.9698924e-5,"MEAN_MOTION_DOT":-3.28e-6,"MEAN_MOTION_DDOT":0},{"OBJECT_NAME":"STARLINK-5584","OBJECT_ID":"2023-028AE","EPOCH":"2026-02-27T22:56:18.048480","MEAN_MOTION":14.98332596,"ECCENTRICITY":0.0002795,"INCLINATION":69.9976,"RA_OF_ASC_NODE":249.0539,"ARG_OF_PERICENTER":269.3676,"MEAN_ANOMALY":90.7162,"EPHEMERIS_TYPE":0,"CLASSIFICATION_TYPE":"U","NORAD_CAT_ID":55769,"ELEMENT_SET_NO":999,"REV_AT_EPOCH":16507,"BSTAR":7.0052e-5,"MEAN_MOTION_DOT":7.43e-6,"MEAN_MOTION_DDOT":0},{"OBJECT_NAME":"STARLINK-5557","OBJECT_ID":"2023-028AF","EPOCH":"2026-02-28T05:14:49.844544","MEAN_MOTION":14.98337709,"ECCENTRICITY":0.00028309,"INCLINATION":69.9977,"RA_OF_ASC_NODE":248.3658,"ARG_OF_PERICENTER":269.7756,"MEAN_ANOMALY":90.3078,"EPHEMERIS_TYPE":0,"CLASSIFICATION_TYPE":"U","NORAD_CAT_ID":55770,"ELEMENT_SET_NO":999,"REV_AT_EPOCH":16511,"BSTAR":5.320599e-6,"MEAN_MOTION_DOT":-3.0e-7,"MEAN_MOTION_DDOT":0},{"OBJECT_NAME":"STARLINK-5591","OBJECT_ID":"2023-028AG","EPOCH":"2026-02-27T22:38:18.731040","MEAN_MOTION":14.98313523,"ECCENTRICITY":0.0001938,"INCLINATION":69.9997,"RA_OF_ASC_NODE":249.0113,"ARG_OF_PERICENTER":276.1624,"MEAN_ANOMALY":83.9315,"EPHEMERIS_TYPE":0,"CLASSIFICATION_TYPE":"U","NORAD_CAT_ID":55771,"ELEMENT_SET_NO":999,"REV_AT_EPOCH":16507,"BSTAR":0.00016195,"MEAN_MOTION_DOT":1.839e-5,"MEAN_MOTION_DDOT":0},{"OBJECT_NAME":"STARLINK-5835","OBJECT_ID":"2023-028AH","EPOCH":"2026-02-27T23:50:36.170880","MEAN_MOTION":14.98327654,"ECCENTRICITY":0.00028762,"INCLINATION":69.9974,"RA_OF_ASC_NODE":248.7841,"ARG_OF_PERICENTER":269.3247,"MEAN_ANOMALY":90.7583,"EPHEMERIS_TYPE":0,"CLASSIFICATION_TYPE":"U","NORAD_CAT_ID":55772,"ELEMENT_SET_NO":999,"REV_AT_EPOCH":16508,"BSTAR":4.864319e-6,"MEAN_MOTION_DOT":-3.5e-7,"MEAN_MOTION_DDOT":0},{"OBJECT_NAME":"STARLINK-5833","OBJECT_ID":"2023-028AJ","EPOCH":"2026-02-28T05:26:50.999424","MEAN_MOTION":14.98334336,"ECCENTRICITY":0.00028023,"INCLINATION":69.9982,"RA_OF_ASC_NODE":248.3921,"ARG_OF_PERICENTER":269.7309,"MEAN_ANOMALY":90.3529,"EPHEMERIS_TYPE":0,"CLASSIFICATION_TYPE":"U","NORAD_CAT_ID":55773,"ELEMENT_SET_NO":999,"REV_AT_EPOCH":16511,"BSTAR":0.00010181242,"MEAN_MOTION_DOT":1.122e-5,"MEAN_MOTION_DDOT":0},{"OBJECT_NAME":"STARLINK-5812","OBJECT_ID":"2023-028AK","EPOCH":"2026-02-27T22:32:15.887328","MEAN_MOTION":14.98344074,"ECCENTRICITY":0.0002528,"INCLINATION":69.9977,"RA_OF_ASC_NODE":248.9945,"ARG_OF_PERICENTER":266.5467,"MEAN_ANOMALY":93.5403,"EPHEMERIS_TYPE":0,"CLASSIFICATION_TYPE":"U","NORAD_CAT_ID":55774,"ELEMENT_SET_NO":999,"REV_AT_EPOCH":16507,"BSTAR":8.9106e-5,"MEAN_MOTION_DOT":9.71e-6,"MEAN_MOTION_DDOT":0},{"OBJECT_NAME":"STARLINK-5809","OBJECT_ID":"2023-028AL","EPOCH":"2026-02-28T06:26:54.850560","MEAN_MOTION":14.98332276,"ECCENTRICITY":0.00029594,"INCLINATION":69.9975,"RA_OF_ASC_NODE":248.1407,"ARG_OF_PERICENTER":279.037,"MEAN_ANOMALY":81.0454,"EPHEMERIS_TYPE":0,"CLASSIFICATION_TYPE":"U","NORAD_CAT_ID":55775,"ELEMENT_SET_NO":999,"REV_AT_EPOCH":16512,"BSTAR":0.00010230879,"MEAN_MOTION_DOT":1.128e-5,"MEAN_MOTION_DDOT":0},{"OBJECT_NAME":"STARLINK-5814","OBJECT_ID":"2023-028AN","EPOCH":"2026-02-27T22:14:15.590976","MEAN_MOTION":14.98322383,"ECCENTRICITY":0.00027405,"INCLINATION":69.9976,"RA_OF_ASC_NODE":248.951,"ARG_OF_PERICENTER":271.1347,"MEAN_ANOMALY":88.9499,"EPHEMERIS_TYPE":0,"CLASSIFICATION_TYPE":"U","NORAD_CAT_ID":55777,"ELEMENT_SET_NO":999,"REV_AT_EPOCH":16507,"BSTAR":1.2692064e-5,"MEAN_MOTION_DOT":5.8e-7,"MEAN_MOTION_DDOT":0},{"OBJECT_NAME":"STARLINK-5816","OBJECT_ID":"2023-028AP","EPOCH":"2026-02-28T06:08:53.393856","MEAN_MOTION":14.98328891,"ECCENTRICITY":0.0002527,"INCLINATION":69.9971,"RA_OF_ASC_NODE":248.0948,"ARG_OF_PERICENTER":274.2129,"MEAN_ANOMALY":85.8742,"EPHEMERIS_TYPE":0,"CLASSIFICATION_TYPE":"U","NORAD_CAT_ID":55778,"ELEMENT_SET_NO":999,"REV_AT_EPOCH":16512,"BSTAR":-1.6336888e-5,"MEAN_MOTION_DOT":-2.88e-6,"MEAN_MOTION_DDOT":0},{"OBJECT_NAME":"STARLINK-5817","OBJECT_ID":"2023-028AQ","EPOCH":"2026-02-27T23:01:57.957312","MEAN_MOTION":14.98325734,"ECCENTRICITY":0.00029377,"INCLINATION":69.9987,"RA_OF_ASC_NODE":228.7856,"ARG_OF_PERICENTER":269.4322,"MEAN_ANOMALY":90.6501,"EPHEMERIS_TYPE":0,"CLASSIFICATION_TYPE":"U","NORAD_CAT_ID":55779,"ELEMENT_SET_NO":999,"REV_AT_EPOCH":16557,"BSTAR":9.9026089e-5,"MEAN_MOTION_DOT":1.089e-5,"MEAN_MOTION_DDOT":0},{"OBJECT_NAME":"STARLINK-5819","OBJECT_ID":"2023-028AR","EPOCH":"2026-02-28T06:02:53.336544","MEAN_MOTION":14.98325073,"ECCENTRICITY":0.00025681,"INCLINATION":69.9974,"RA_OF_ASC_NODE":248.0804,"ARG_OF_PERICENTER":269.5863,"MEAN_ANOMALY":90.5001,"EPHEMERIS_TYPE":0,"CLASSIFICATION_TYPE":"U","NORAD_CAT_ID":55780,"ELEMENT_SET_NO":999,"REV_AT_EPOCH":16512,"BSTAR":-5.6918413e-5,"MEAN_MOTION_DOT":-7.72e-6,"MEAN_MOTION_DDOT":0}]
