STARLINK-5593           
1 55763U 23028Y   26059.27308987 -.00006940  00000+0 -57411-3 0  9998
2 55763  69.9974 268.0358 0003028 276.5732  83.5083 14.98352292164631
STARLINK-5499           
1 55764U 23028Z   26059.23533026  .00000300  00000+0  32927-4 0  9997
2 55764  69.9974 248.4253 0002257 279.7593  80.3311 14.98330898165112
STARLINK-5595           
1 55765U 23028AA  26058.97246222 -.00000596  00000+0 -42114-4 0  9995
2 55765  69.9973 249.1136 0002868 269.9450  90.1381 14.98332878165072
STARLINK-5599           
1 55766U 23028AB  26058.94742037  .00000528  00000+0  52064-4 0  9996
2 55766  69.9982 249.0237 0002892 270.5800  89.5028 14.98326952165074
STARLINK-5606           
1 55767U 23028AC  26058.97663772 -.00000328  00000+0 -19699-4 0  9995
2 55767  69.9977 249.1289 0002878 268.3941  91.6889 14.98327516165056
STARLINK-5584           
1 55769U 23028AE  26058.95576445  .00000743  00000+0  70052-4 0  9994
2 55769  69.9976 249.0539 0002795 269.3676  90.7162 14.98332596165078
STARLINK-5557           
1 55770U 23028AF  26059.21863246 -.00000030  00000+0  53206-5 0  9997
2 55770  69.9977 248.3658 0002830 269.7756  90.3078 14.98337709165116
STARLINK-5591           
1 55771U 23028AG  26058.94327235  .00001839  00000+0  16195-3 0  9991
2 55771  69.9997 249.0113 0001938 276.1624  83.9315 14.98313523165072
STARLINK-5835           
1 55772U 23028AH  26058.99347420 -.00000035  00000+0  48643-5 0  9998
2 55772  69.9974 248.7841 0002876 269.3247  90.7583 14.98327654165083
STARLINK-5833           
1 55773U 23028AJ  26059.22697916  .00001122  00000+0  10181-3 0  9995
2 55773  69.9982 248.3921 0002802 269.7309  90.3529 14.98334336165115
STARLINK-5812           
1 55774U 23028AK  26058.93907277  .00000971  00000+0  89106-4 0  9992
2 55774  69.9977 248.9945 0002528 266.5467  93.5403 14.98344074165078
STARLINK-5809           
1 55775U 23028AL  26059.26869040  .00001128  00000+0  10231-3 0  9992
2 55775  69.9975 248.1407 0002959 279.0370  81.0454 14.98332276165127
STARLINK-5814           
1 55777U 23028AN  26058.92656934  .00000058  00000+0  12692-4 0  9997
2 55777  69.9976 248.9510 0002740 271.1347  88.9499 14.98322383165075
STARLINK-5816           
1 55778U 23028AP  26059.25617354 -.00000288  00000+0 -16337-4 0  9995
2 55778  69.9971 248.0948 0002527 274.2129  85.8742 14.98328891165125
STARLINK-5817           
1 55779U 23028AQ  26058.95969858  .00001089  00000+0  99026-4 0  9995
2 55779  69.9987 228.7856 0002937 269.4322  90.6501 14.98325734165571
STARLINK-5819           
1 55780U 23028AR  26059.25200621 -.00000772  00000+0 -56918-4 0  9990
2 55780  69.9974 248.0804 0002568 269.5863  90.5001 14.98325073165129
